CCSDS_OMM_VERS = 2.0
CREATION_DATE  = 
ORIGINATOR     = 

OBJECT_NAME    = GLOBAL-33
OBJECT_ID      = 2025-267A
CENTER_NAME    = EARTH
REF_FRAME      = TEME
TIME_SYSTEM    = UTC
MEAN_ELEMENT_THEORY = SGP/SGP4

EPOCH          = 2025-12-17T19:33:49.414464
MEAN_MOTION    = 15.31657844
ECCENTRICITY   = .00035394
INCLINATION    = 42.0219
RA_OF_ASC_NODE = 27.6922
ARG_OF_PERICENTER = 117.3798
MEAN_ANOMALY   = 242.7400

EPHEMERIS_TYPE = 0
CLASSIFICATION_TYPE = U
NORAD_CAT_ID   = 66554
ELEMENT_SET_NO = 999
REV_AT_EPOCH   = 418
BSTAR          = .33354297E-3
MEAN_MOTION_DOT = .1018E-3
MEAN_MOTION_DDOT = 0

CCSDS_OMM_VERS = 2.0
CREATION_DATE  = 
ORIGINATOR     = 

OBJECT_NAME    = ELECTRON KICK STAGE R/B
OBJECT_ID      = 2025-267B
CENTER_NAME    = EARTH
REF_FRAME      = TEME
TIME_SYSTEM    = UTC
MEAN_ELEMENT_THEORY = SGP/SGP4

EPOCH          = 2025-12-17T14:29:06.909216
MEAN_MOTION    = 15.33044085
ECCENTRICITY   = .0006678
INCLINATION    = 42.0197
RA_OF_ASC_NODE = 28.6999
ARG_OF_PERICENTER = 92.8564
MEAN_ANOMALY   = 267.3039

EPHEMERIS_TYPE = 0
CLASSIFICATION_TYPE = U
NORAD_CAT_ID   = 66555
ELEMENT_SET_NO = 999
REV_AT_EPOCH   = 415
BSTAR          = .61399448E-3
MEAN_MOTION_DOT = .19838E-3
MEAN_MOTION_DDOT = 0

CCSDS_OMM_VERS = 2.0
CREATION_DATE  = 
ORIGINATOR     = 

OBJECT_NAME    = STARLINK-35699
OBJECT_ID      = 2025-268A
CENTER_NAME    = EARTH
REF_FRAME      = TEME
TIME_SYSTEM    = UTC
MEAN_ELEMENT_THEORY = SGP/SGP4

EPOCH          = 2025-12-17T17:54:54.075744
MEAN_MOTION    = 15.50580348
ECCENTRICITY   = .00013226
INCLINATION    = 43.0008
RA_OF_ASC_NODE = 91.9199
ARG_OF_PERICENTER = 276.0396
MEAN_ANOMALY   = 84.0313

EPHEMERIS_TYPE = 0
CLASSIFICATION_TYPE = U
NORAD_CAT_ID   = 66557
ELEMENT_SET_NO = 999
REV_AT_EPOCH   = 540
BSTAR          = .1510495E-2
MEAN_MOTION_DOT = .89293E-3
MEAN_MOTION_DDOT = 0

CCSDS_OMM_VERS = 2.0
CREATION_DATE  = 
ORIGINATOR     = 

OBJECT_NAME    = STARLINK-35695
OBJECT_ID      = 2025-268B
CENTER_NAME    = EARTH
REF_FRAME      = TEME
TIME_SYSTEM    = UTC
MEAN_ELEMENT_THEORY = SGP/SGP4

EPOCH          = 2025-12-17T14:48:55.770624
MEAN_MOTION    = 15.50605784
ECCENTRICITY   = .00041604
INCLINATION    = 43.0014
RA_OF_ASC_NODE = 92.6707
ARG_OF_PERICENTER = 289.8446
MEAN_ANOMALY   = 70.1966

EPHEMERIS_TYPE = 0
CLASSIFICATION_TYPE = U
NORAD_CAT_ID   = 66558
ELEMENT_SET_NO = 999
REV_AT_EPOCH   = 538
BSTAR          = .12009628E-2
MEAN_MOTION_DOT = .70838E-3
MEAN_MOTION_DDOT = 0

CCSDS_OMM_VERS = 2.0
CREATION_DATE  = 
ORIGINATOR     = 

OBJECT_NAME    = STARLINK-35419
OBJECT_ID      = 2025-268C
CENTER_NAME    = EARTH
REF_FRAME      = TEME
TIME_SYSTEM    = UTC
MEAN_ELEMENT_THEORY = SGP/SGP4

EPOCH          = 2025-12-17T14:48:24.276960
MEAN_MOTION    = 15.50569505
ECCENTRICITY   = .00021814
INCLINATION    = 42.9992
RA_OF_ASC_NODE = 92.6670
ARG_OF_PERICENTER = 285.6264
MEAN_ANOMALY   = 74.4355

EPHEMERIS_TYPE = 0
CLASSIFICATION_TYPE = U
NORAD_CAT_ID   = 66559
ELEMENT_SET_NO = 999
REV_AT_EPOCH   = 538
BSTAR          = .11414746E-2
MEAN_MOTION_DOT = .6718E-3
MEAN_MOTION_DDOT = 0

CCSDS_OMM_VERS = 2.0
CREATION_DATE  = 
ORIGINATOR     = 

OBJECT_NAME    = STARLINK-35411
OBJECT_ID      = 2025-268D
CENTER_NAME    = EARTH
REF_FRAME      = TEME
TIME_SYSTEM    = UTC
MEAN_ELEMENT_THEORY = SGP/SGP4

EPOCH          = 2025-12-17T14:47:54.930336
MEAN_MOTION    = 15.50574913
ECCENTRICITY   = .00019908
INCLINATION    = 42.9986
RA_OF_ASC_NODE = 92.6650
ARG_OF_PERICENTER = 282.7775
MEAN_ANOMALY   = 77.2863

EPHEMERIS_TYPE = 0
CLASSIFICATION_TYPE = U
NORAD_CAT_ID   = 66560
ELEMENT_SET_NO = 999
REV_AT_EPOCH   = 538
BSTAR          = .14154874E-2
MEAN_MOTION_DOT = .83579E-3
MEAN_MOTION_DDOT = 0

CCSDS_OMM_VERS = 2.0
CREATION_DATE  = 
ORIGINATOR     = 

OBJECT_NAME    = STARLINK-35305
OBJECT_ID      = 2025-268E
CENTER_NAME    = EARTH
REF_FRAME      = TEME
TIME_SYSTEM    = UTC
MEAN_ELEMENT_THEORY = SGP/SGP4

EPOCH          = 2025-12-17T14:46:55.818912
MEAN_MOTION    = 15.50600188
ECCENTRICITY   = .00028709
INCLINATION    = 43.0004
RA_OF_ASC_NODE = 92.6599
ARG_OF_PERICENTER = 290.6978
MEAN_ANOMALY   = 69.3575

EPHEMERIS_TYPE = 0
CLASSIFICATION_TYPE = U
NORAD_CAT_ID   = 66561
ELEMENT_SET_NO = 999
REV_AT_EPOCH   = 538
BSTAR          = .14107904E-2
MEAN_MOTION_DOT = .83379E-3
MEAN_MOTION_DDOT = 0

CCSDS_OMM_VERS = 2.0
CREATION_DATE  = 
ORIGINATOR     = 

OBJECT_NAME    = STARLINK-35579
OBJECT_ID      = 2025-268F
CENTER_NAME    = EARTH
REF_FRAME      = TEME
TIME_SYSTEM    = UTC
MEAN_ELEMENT_THEORY = SGP/SGP4

EPOCH          = 2025-12-17T14:47:27.252960
MEAN_MOTION    = 15.50520553
ECCENTRICITY   = .00018619
INCLINATION    = 43.0012
RA_OF_ASC_NODE = 92.6624
ARG_OF_PERICENTER = 267.3640
MEAN_ANOMALY   = 92.7007

EPHEMERIS_TYPE = 0
CLASSIFICATION_TYPE = U
NORAD_CAT_ID   = 66562
ELEMENT_SET_NO = 999
REV_AT_EPOCH   = 538
BSTAR          = .12204954E-2
MEAN_MOTION_DOT = .71769E-3
MEAN_MOTION_DDOT = 0

CCSDS_OMM_VERS = 2.0
CREATION_DATE  = 
ORIGINATOR     = 

OBJECT_NAME    = STARLINK-35437
OBJECT_ID      = 2025-268G
CENTER_NAME    = EARTH
REF_FRAME      = TEME
TIME_SYSTEM    = UTC
MEAN_ELEMENT_THEORY = SGP/SGP4

EPOCH          = 2025-12-17T14:46:26.224320
MEAN_MOTION    = 15.50594747
ECCENTRICITY   = .00023047
INCLINATION    = 42.9991
RA_OF_ASC_NODE = 92.6583
ARG_OF_PERICENTER = 285.6032
MEAN_ANOMALY   = 74.4573

EPHEMERIS_TYPE = 0
CLASSIFICATION_TYPE = U
NORAD_CAT_ID   = 66563
ELEMENT_SET_NO = 999
REV_AT_EPOCH   = 538
BSTAR          = .10834473E-2
MEAN_MOTION_DOT = .63777E-3
MEAN_MOTION_DDOT = 0

CCSDS_OMM_VERS = 2.0
CREATION_DATE  = 
ORIGINATOR     = 

OBJECT_NAME    = STARLINK-35358
OBJECT_ID      = 2025-268H
CENTER_NAME    = EARTH
REF_FRAME      = TEME
TIME_SYSTEM    = UTC
MEAN_ELEMENT_THEORY = SGP/SGP4

EPOCH          = 2025-12-17T14:45:56.565792
MEAN_MOTION    = 15.50637847
ECCENTRICITY   = .000287
INCLINATION    = 43.0013
RA_OF_ASC_NODE = 92.6537
ARG_OF_PERICENTER = 287.7389
MEAN_ANOMALY   = 72.3158

EPHEMERIS_TYPE = 0
CLASSIFICATION_TYPE = U
NORAD_CAT_ID   = 66564
ELEMENT_SET_NO = 999
REV_AT_EPOCH   = 538
BSTAR          = .10567485E-2
MEAN_MOTION_DOT = .62284E-3
MEAN_MOTION_DDOT = 0

CCSDS_OMM_VERS = 2.0
CREATION_DATE  = 
ORIGINATOR     = 

OBJECT_NAME    = STARLINK-35893
OBJECT_ID      = 2025-268J
CENTER_NAME    = EARTH
REF_FRAME      = TEME
TIME_SYSTEM    = UTC
MEAN_ELEMENT_THEORY = SGP/SGP4

EPOCH          = 2025-12-17T14:45:27.364320
MEAN_MOTION    = 15.50645762
ECCENTRICITY   = .00010231
INCLINATION    = 42.9963
RA_OF_ASC_NODE = 92.6492
ARG_OF_PERICENTER = 296.3294
MEAN_ANOMALY   = 63.7461

EPHEMERIS_TYPE = 0
CLASSIFICATION_TYPE = U
NORAD_CAT_ID   = 66565
ELEMENT_SET_NO = 999
REV_AT_EPOCH   = 538
BSTAR          = .13537546E-2
MEAN_MOTION_DOT = .80083E-3
MEAN_MOTION_DDOT = 0

CCSDS_OMM_VERS = 2.0
CREATION_DATE  = 
ORIGINATOR     = 

OBJECT_NAME    = STARLINK-35871
OBJECT_ID      = 2025-268K
CENTER_NAME    = EARTH
REF_FRAME      = TEME
TIME_SYSTEM    = UTC
MEAN_ELEMENT_THEORY = SGP/SGP4

EPOCH          = 2025-12-17T22:00:01.999584
MEAN_MOTION    = 15.50551215
ECCENTRICITY   = .00015879
INCLINATION    = 43.0008
RA_OF_ASC_NODE = 90.8808
ARG_OF_PERICENTER = 272.0335
MEAN_ANOMALY   = 336.6236

EPHEMERIS_TYPE = 0
CLASSIFICATION_TYPE = U
NORAD_CAT_ID   = 66566
ELEMENT_SET_NO = 999
REV_AT_EPOCH   = 549
BSTAR          = .27806158E-3
MEAN_MOTION_DOT = .15988E-3
MEAN_MOTION_DDOT = 0

