GLOBAL-33               
1 66554U 25267A   25351.81515526  .00010180  00000+0  33354-3 0  9997
2 66554  42.0219  27.6922 0003539 117.3798 242.7400 15.31657844  4186
ELECTRON KICK STAGE R/B 
1 66555U 25267B   25351.60355219  .00019838  00000+0  61399-3 0  9995
2 66555  42.0197  28.6999 0006678  92.8564 267.3039 15.33044085  4159
STARLINK-35699          
1 66557U 25268A   25351.74645921  .00089293  00000+0  15105-2 0  9990
2 66557  43.0008  91.9199 0001322 276.0396  84.0313 15.50580348  5402
STARLINK-35695          
1 66558U 25268B   25351.61731216  .00070838  00000+0  12010-2 0  9997
2 66558  43.0014  92.6707 0004160 289.8446  70.1966 15.50605784  5383
STARLINK-35419          
1 66559U 25268C   25351.61694765  .00067180  00000+0  11415-2 0  9999
2 66559  42.9992  92.6670 0002181 285.6264  74.4355 15.50569505  5388
STARLINK-35411          
1 66560U 25268D   25351.61660799  .00083579  00000+0  14155-2 0  9995
2 66560  42.9986  92.6650 0001990 282.7775  77.2863 15.50574913  5387
STARLINK-35305          
1 66561U 25268E   25351.61592383  .00083379  00000+0  14108-2 0  9995
2 66561  43.0004  92.6599 0002870 290.6978  69.3575 15.50600188  5380
STARLINK-35579          
1 66562U 25268F   25351.61628765  .00071769  00000+0  12205-2 0  9996
2 66562  43.0012  92.6624 0001861 267.3640  92.7007 15.50520553  5382
STARLINK-35437          
1 66563U 25268G   25351.61558130  .00063777  00000+0  10834-2 0  9991
2 66563  42.9991  92.6583 0002304 285.6032  74.4573 15.50594747  5383
STARLINK-35358          
1 66564U 25268H   25351.61523803  .00062284  00000+0  10567-2 0  9996
2 66564  43.0013  92.6537 0002870 287.7389  72.3158 15.50637847  5381
STARLINK-35893          
1 66565U 25268J   25351.61490005  .00080083  00000+0  13538-2 0  9992
2 66565  42.9963  92.6492 0001023 296.3294  63.7461 15.50645762  5380
STARLINK-35871          
1 66566U 25268K   25351.91668981  .00015988  00000+0  27806-3 0  9992
2 66566  43.0008  90.8808 0001587 272.0335 336.6236 15.50551215  5499
